LEMUR-2-CHRISTINAHOLT   
1 43882U 18111G   21028.81759889  .00001068  00000-0  97326-4 0  9991
2 43882  97.6976 299.4405 0011028 202.7129 157.3606 14.97181869112229
LEMUR-2-TINYKEV         
1 43883U 18111H   21029.45396660  .00000195  00000-0  21806-4 0  9997
2 43883  97.6983 300.1541 0010791 202.7635 157.3109 14.97295261112328
LEMUR-2-REMY-COLTON     
1 43884U 18111J   21029.55795705  .00001106  00000-0  99963-4 0  9994
2 43884  97.6983 300.3983 0010924 200.3648 159.7150 14.97456167112356
LEMUR-2-GUSTAVO         
1 43885U 18111K   21029.03520689  .00001268  00000-0  11431-3 0  9997
2 43885  97.6996 299.8416 0010495 198.7554 161.3283 14.97295160112263
LEMUR-2-ZO              
1 43886U 18111L   21029.45926737  .00000193  00000-0  21574-4 0  9994
2 43886  97.6995 300.4084 0010522 199.5908 160.4912 14.97381495112330
LEMUR-2-NATALIEMURRAY   
1 43887U 18111M   21029.46651819  .00000361  00000-0  35928-4 0  9997
2 43887  97.6993 300.5616 0010832 198.7650 161.3174 14.97500739114347
LEMUR-2-SARAHBETTYBOO   
1 43888U 18111N   21029.50716703  .00000987  00000-0  89513-4 0  9990
2 43888  97.7016 300.7362 0010578 193.4859 166.6082 14.97549038114357
LEMUR-2-DAISY-HARPER    
1 43889U 18111P   21028.80024055  .00000491  00000-0  46929-4 0  9999
2 43889  97.7004 300.1311 0010739 199.7882 160.2925 14.97633410114249
GRUS-1A                 
1 43890U 18111Q   21029.55082870  .00000102  00000-0  15102-4 0  9991
2 43890  97.6791 295.2648 0002449 249.2286 110.8687 14.93006480114072
2018-111R               
1 43891U 18111R   21029.54892027  .00000408  00000-0  19989-4 0  9990
2 43891  97.2442 286.5152 0028344  74.5984  22.2464 15.23198281116358
FLOCK 3K-4              
1 43893U 18111T   21028.43803686  .00002017  00000-0  78240-4 0  9995
2 43893  97.2492 287.9237 0023528  72.1978 288.1825 15.27005858116344
FLOCK 3K-1              
1 43894U 18111U   21029.21754627  .00003913  00000-0  14899-3 0  9998
2 43894  97.2489 288.6400 0023728  69.5308 290.8476 15.27049400116466
FLOCK 3K-2              
1 43895U 18111V   21029.27610035  .00003796  00000-0  14450-3 0  9991
2 43895  97.2488 288.7385 0024119  69.0005 291.3812 15.27071839116475
FLOCK 3K-6              
1 43896U 18111W   21029.46575701  .00002664  00000-0  10230-3 0  9998
2 43896  97.2499 288.9499 0022292  65.6361 294.7202 15.27089569116506
FLOCK 3K-5              
1 43899U 18111Z   21029.45964011  .00003828  00000-0  14568-3 0  9997
2 43899  97.2494 288.9771 0022605  64.7767 295.5812 15.27108513116502
FLOCK 3K-7              
1 43902U 18111AC  21028.99146911  .00005086  00000-0  19346-3 0  9998
2 43902  97.2497 288.5112 0022806  66.5668 293.7965 15.26960824116439
FLOCK 3K-11             
1 43904U 18111AE  21029.17360861  .00003990  00000-0  15242-3 0  9996
2 43904  97.2497 288.7445 0022125  64.8670 295.4861 15.26966974116469
FLOCK 3K-10             
1 43905U 18111AF  21028.64211927  .00001429  00000-0  56355-4 0  9992
2 43905  97.2495 288.2462 0021795  65.8177 294.5338 15.26959064116389
FLOCK 3K-9              
1 43906U 18111AG  21028.98418371  .00002813  00000-0  10820-3 0  9996
2 43906  97.2489 288.5197 0022502  65.6479 294.7106 15.26977406116432
ZACUBE-2                
1 43907U 18111AH  21029.55706155  .00001023  00000-0  43612-4 0  9999
2 43907  97.2484 288.2557 0023003  66.2106  30.1698 15.24934039116460
LUME 1                  
1 43908U 18111AJ  21028.78762589  .00002004  00000-0  80880-4 0  9995
2 43908  97.2485 287.8805 0022471  67.7420 292.6199 15.25706946116372
YUNHAI-2 1              
1 43909U 18112A   21029.40368911 -.00000139  00000-0  89664-5 0  9996
2 43909  50.0130  93.3012 0000470 168.5050 191.5896 14.27702226110329
YUNHAI-2 2              
1 43910U 18112B   21029.43053194 -.00000054  00000-0  43260-4 0  9992
2 43910  50.0124 156.6859 0005378 165.8944 194.2131 14.27669741109447
YUNHAI-2 3              
1 43911U 18112C   21029.45007405 -.00000035  00000-0  51019-4 0  9999
2 43911  50.0156  36.0021 0000668  72.9928 287.1063 14.27664976111121
YUNHAI-2 4              
1 43912U 18112D   21029.35803145 -.00000035  00000-0  50826-4 0  9999
2 43912  50.0156 336.6790 0015950 293.0812  66.8425 14.27663281106779
YUNHAI-2 5              
1 43913U 18112E   21029.03568954  .00000175  00000-0  13550-3 0  9997
2 43913  50.0075 217.9179 0005038 312.9077  47.1424 14.27687409108537
HONGYAN 1 (CHONGQING)   
1 43914U 18112F   21029.33264018 -.00000127  00000-0  32321-5 0  9992
2 43914  50.0099 263.1132 0006995  34.4472 325.6854 13.43699310102451
YUNHAI-2 6              
1 43915U 18112G   21029.40934753 -.00000081  00000-0  32414-4 0  9992
2 43915  50.0152 276.5613 0007638 279.9404  80.0655 14.27676290107686
TJS-3 AKM               
1 43917U 18110C   21028.89012346  .00000062  00000-0  00000-0 0  9999
2 43917   0.4410 102.7838 0000981 214.9072 190.1085  1.00270116  7657
CHINASAT 2D (ZX 2D)     
1 43920U 19001A   21029.47853043 -.00000333  00000-0  00000+0 0  9996
2 43920   0.0504 259.2582 0000949 227.5776 304.3378  1.00269526  7657
IRIDIUM 180             
1 43922U 19002A   21028.68702766  .00000098  00000-0  27962-4 0  9994
2 43922  86.3956  95.0111 0003249 101.2842 258.8719 14.34218605107273
IRIDIUM 176             
1 43923U 19002B   21029.14462069  .00000180  00000-0  24649-4 0  9997
2 43923  86.6089  94.8516 0002641  92.6150 267.5370 14.72257024110139
IRIDIUM 168             
1 43924U 19002C   21028.75046867  .00000098  00000-0  27758-4 0  9990
2 43924  86.3959  95.0062 0002492  94.6634 265.4846 14.34217211107262
IRIDIUM 173             
1 43925U 19002D   21029.43546378  .00000097  00000-0  27511-4 0  9995
2 43925  86.3953  94.6886 0002429  96.2957 263.8515 14.34216923107356
IRIDIUM 169             
1 43926U 19002E   21028.88436380  .00000110  00000-0  29306-4 0  9995
2 43926  86.4248 126.5205 0004161 355.6867   4.4295 14.38614385107679
IRIDIUM 172             
1 43927U 19002F   21028.45235007  .00000104  00000-0  29931-4 0  9999
2 43927  86.3955  95.1015 0002507  96.8065 263.3416 14.34218635107215
IRIDIUM 175             
1 43928U 19002G   21028.73063360  .00000185  00000-0  25455-4 0  9998
2 43928  86.6076  94.8720 0002304 110.1774 249.9691 14.72248989110063
IRIDIUM 171             
1 43929U 19002H   21028.71240577  .00000093  00000-0  26241-4 0  9996
2 43929  86.3964  95.0808 0002474  94.1788 265.9690 14.34217684107240
IRIDIUM 170             
1 43930U 19002J   21029.49065891  .00000175  00000-0  23790-4 0  9995
2 43930  86.6090  94.7136 0002524  99.6328 260.5174 14.72248551110196
IRIDIUM 167             
1 43931U 19002K   21029.19444275  .00000090  00000-0  25091-4 0  9992
2 43931  86.3954  94.7963 0003058  97.8104 262.3439 14.34217493107319
RAPIS-1                 
1 43932U 19003A   21028.49301661  .00001254  00000-0  84618-4 0  9990
2 43932  97.2093  64.8103 0004441  47.6434 312.5171 15.08273758112039
ORIGAMISAT-1            
1 43933U 19003B   21029.08738235  .00004882  00000-0  20501-3 0  9998
2 43933  97.2020  75.8906 0018176 162.4216 197.7655 15.23752074112868
RISESAT                 
1 43934U 19003C   21029.53132463  .00000641  00000-0  30661-4 0  9998
2 43934  97.2000  76.1884 0017387 151.9512 342.1349 15.22256813112923
MICRODRAGON             
1 43935U 19003D   21029.37656728  .00001118  00000-0  50258-4 0  9990
2 43935  97.2019  76.6657 0018759 152.6882 207.5345 15.22956909112933
NEXUS (FO-99)           
1 43937U 19003F   21028.79714581  .00002245  00000-0  91653-4 0  9995
2 43937  97.1971  77.4707 0024644 144.3002 215.9890 15.25136407112976
ALE-1                   
1 43938U 19003G   21029.07840172  .00004501  00000-0  17310-3 0  9998
2 43938  97.2079  78.5512 0024832 145.8608 214.4234 15.26610810113029
AOBA VELOX-IV           
1 43940U 19003J   21028.76549547  .00004017  00000-0  15700-3 0  9991
2 43940  97.1994  78.0551 0024236 142.0321 218.2632 15.26150769112995
LINGQUE 1A              
1 43942U 19005A   21029.48963772  .00009903  00000-0  46244-3 0  9991
2 43942  97.5097 131.2533 0014625 256.6725 166.8786 15.19930309111971
JILIN-01-09             
1 43943U 19005B   21029.53274800  .00000943  00000-0  58173-4 0  9995
2 43943  97.5082 127.2880 0012976 259.2512 195.7324 15.12265213111704
XIAOXIANG 3             
1 43944U 19005C   21029.43474216  .00001740  00000-0  10163-3 0  9990
2 43944  97.5074 127.5264 0011138 257.0578 165.3183 15.13190223111707
JILIN-01-10             
1 43946U 19005E   21029.55099324  .00000223  00000-0  16626-4 0  9994
2 43946  97.5076 127.3559 0018192 252.9818 118.1658 15.12282973111643
CATSAT-2                
1 44029U 98067PV  21028.81076304  .00058122  00000-0  27694-3 0  9990
2 44029  51.6370 243.8954 0004050 203.3289 156.7531 15.82267348113957
DELPHINI                
1 44030U 98067PW  21029.01467226  .00110014  00000-0  38463-3 0  9997
2 44030  51.6260 237.4370 0005374 208.3980 151.6733 15.88438016114026
UNITE                   
1 44031U 98067PX  21029.03128377  .00019671  00000-0  17342-3 0  9991
2 44031  51.6358 260.3985 0003203 179.2830 180.8172 15.68725442113728
CATSAT-1                
1 44033U 98067PZ  21029.00034979  .00053212  00000-0  25410-3 0  9998
2 44033  51.6371 242.9211 0004005 202.1798 157.9032 15.82257060113893
HELLAS-SAT 4 & SGS-1    
1 44034U 19007A   21029.10149632  .00000158  00000-0  00000+0 0  9995
2 44034   0.0683 121.5020 0002875  46.6928  35.8873  1.00271494  7641
GSAT-31                 
1 44035U 19007B   21029.10324104  .00000131  00000-0  00000+0 0  9996
2 44035   0.0633 268.2411 0004825  18.2994 287.0316  1.00272124  7267
2018-092C               
1 44041U 18092C   21029.40839296  .00003101  00000-0  89638-4 0  9991
2 44041  51.6423  16.4571 0004188  78.0534  44.9954 15.38834849110929
2018-092D               
1 44042U 18092D   21029.45626752  .00002419  00000-0  72482-4 0  9998
2 44042  51.6422  16.7338 0003817  80.0415  57.2645 15.38693895123889
